NORAD_CAT_ID,OBJECT_NAME,OBJECT_TYPE,EPOCH,MEAN_MOTION,ECCENTRICITY,INCLINATION,RA_OF_ASC_NODE,ARG_OF_PERICENTER,MEAN_ANOMALY,BSTAR,MEAN_MOTION_DOT,MEAN_MOTION_DDOT,TLE_LINE0,TLE_LINE1,TLE_LINE2,SEMIMAJOR_AXIS,PERIOD,APOGEE,PERIGEE,DECAYED
52262.0,STARLINK-3761,PAYLOAD,2022-05-15 22:00:00,15.65163593,0.0001281999999999,53.2172,255.028,45.5783,307.1048,-0.0077710999999999,-0.00717831,0.0,0 STARLINK-3761,1 52262U 22041B   22135.91667824 -.00717831  00000-0 -77711-2 0  9996,2 52262  53.2172 255.0280 0001282  45.5783 307.1048 15.65163593  1307,6750.905,92.003,373.636,371.905,0.0
52262.0,STARLINK-3761,PAYLOAD,2022-05-16 12:00:00,15.64270689,0.0002008,53.2176,252.1725,22.768,17.6942,-0.0080486,-0.00717553,0.0,0 STARLINK-3761,1 52262U 22041B   22136.50001157 -.00717553  00000-0 -80486-2 0  9997,2 52262  53.2176 252.1725 0002008  22.7680  17.6942 15.64270689  5138,6753.474,92.056,376.695,373.983,0.0
52262.0,STARLINK-3761,PAYLOAD,2022-05-16 14:00:01,15.64142013,0.000217,53.2172,251.7653,25.8318,124.16,-0.0080683,-0.00715823,0.0,0 STARLINK-3761,1 52262U 22041B   22136.58334491 -.00715823  00000-0 -80683-2 0  9992,2 52262  53.2172 251.7653 0002170  25.8318 124.1600 15.64142013  1300,6753.844,92.063,377.175,374.244,0.0
52262.0,STARLINK-3761,PAYLOAD,2022-05-16 22:00:00,15.63633836,0.0001531999999999,53.2171,250.1354,45.5325,182.1938,-0.0082724,-0.00718836,0.0,0 STARLINK-3761,1 52262U 22041B   22136.91667824 -.00718836  00000-0 -82724-2 0  9993,2 52262  53.2171 250.1354 0001532  45.5325 182.1938 15.63633836  1303,6755.308000000001,92.093,378.208,376.138,0.0
52262.0,STARLINK-3761,PAYLOAD,2022-05-17 12:00:00,15.62739603,0.0001738,53.2174,247.2867,34.7483,237.5396,-0.0085167,-0.00714777,0.0,0 STARLINK-3761,1 52262U 22041B   22137.50001157 -.00714777  00000-0 -85167-2 0  9994,2 52262  53.2174 247.2867 0001738  34.7483 237.5396 15.62739603  5298,6757.884,92.146,380.924,378.575,0.0
52262.0,STARLINK-3761,PAYLOAD,2022-05-17 14:00:01,15.62614182,0.0001781999999999,53.2173,246.8803,29.4989,351.9232,-0.008612,-0.00718862,0.0,0 STARLINK-3761,1 52262U 22041B   22137.58335648 -.00718862  00000-0 -86120-2 0  9996,2 52262  53.2173 246.8803 0001782  29.4989 351.9232 15.62614182  1305,6758.246,92.153,381.315,378.907,0.0
52262.0,STARLINK-3761,PAYLOAD,2022-05-17 22:00:01,15.62102486,0.0001563,53.2173,245.2539,37.3722,59.9473,-0.008743,-0.00715535,0.0,0 STARLINK-3761,1 52262U 22041B   22137.91668981 -.00715535  00000-0 -87430-2 0  9991,2 52262  53.2173 245.2539 0001563  37.3722  59.9473 15.62102486  1305,6759.722,92.183,382.643,380.53,0.0
52262.0,STARLINK-3761,PAYLOAD,2022-05-18 12:00:00,15.61208674,0.0002131,53.2175,242.4118,25.4669,113.1321,-0.0090235,-0.00713492,0.0,0 STARLINK-3761,1 52262U 22041B   22138.50001157 -.00713492  00000-0 -90235-2 0  9990,2 52262  53.2175 242.4118 0002131  25.4669 113.1321 15.61208674  5448,6762.302,92.236,385.608,382.726,0.0
52262.0,STARLINK-3761,PAYLOAD,2022-05-18 14:00:01,15.61082286,0.0002077,53.2176,242.0064,29.0963,218.1124,-0.0090953,-0.00715457,0.0,0 STARLINK-3761,1 52262U 22041B   22138.58334491 -.00715457  00000-0 -90953-2 0  9998,2 52262  53.2176 242.0064 0002077  29.0963 218.1124 15.61082286  1308,6762.667,92.244,385.936,383.127,0.0
52262.0,STARLINK-3761,PAYLOAD,2022-05-18 22:00:00,15.60573722,0.0001398,53.2173,240.3835,45.8358,275.4308,-0.0093068,-0.00717473,0.0,0 STARLINK-3761,1 52262U 22041B   22138.91667824 -.00717473  00000-0 -93068-2 0  9994,2 52262  53.2173 240.3835 0001398  45.8358 275.4308 15.60573722  1300,6764.136,92.274,386.946,385.055,0.0
52262.0,STARLINK-3761,PAYLOAD,2022-05-19 14:00:01,15.59553641,0.0001931,53.2173,237.1438,29.8413,77.7674,-0.0096687999999999,-0.00716837,0.0,0 STARLINK-3761,1 52262U 22041B   22139.58335648 -.00716837  00000-0 -96688-2 0  9998,2 52262  53.2173 237.1438 0001931  29.8413  77.7674 15.59553641  1305,6767.085,92.334,390.257,387.643,0.0
52262.0,STARLINK-3761,PAYLOAD,2022-05-19 22:00:00,15.59043366,0.0001668,53.2173,235.5243,40.5499,139.2145,-0.0098532,-0.00716362,0.0,0 STARLINK-3761,1 52262U 22041B   22139.91667824 -.00716362  00000-0 -98532-2 0  9992,2 52262  53.2173 235.5243 0001668  40.5499 139.2145 15.59043366  5671,6768.561,92.364,391.555,389.297,0.0
52262.0,STARLINK-3761,PAYLOAD,2022-05-20 14:00:01,15.58023984,0.000176,53.2174,232.2921,33.4223,288.9422,-0.010257,-0.00717288,0.0,0 STARLINK-3761,1 52262U 22041B   22140.58334491 -.00717288  00000-0 -10257-1 0  9993,2 52262  53.2174 232.2921 0001760  33.4223 288.9422 15.58023984  1307,6771.514,92.425,394.57,392.187,0.0
52262.0,STARLINK-3761,PAYLOAD,2022-05-20 22:00:00,15.5751309,0.0001569,53.2175,230.6762,34.306,358.4407,-0.010425,-0.00715232,0.0,0 STARLINK-3761,1 52262U 22041B   22140.91667824 -.00715232  00000-0 -10425-1 0  9993,2 52262  53.2175 230.6762 0001569  34.3060 358.4407 15.57513090  5827,6772.994000000002,92.455,395.922,393.797,0.0
52262.0,STARLINK-3761,PAYLOAD,2022-05-21 06:00:00,15.570018300000005,0.000189,53.2176,229.0618,29.7684,72.7476,-0.01058,-0.00712351,0.0,0 STARLINK-3761,1 52262U 22041B   22141.25001157 -.00712351  00000-0 -10580-1 0  9993,2 52262  53.2176 229.0618 0001890  29.7684  72.7476 15.57001830  1302,6774.477,92.485,397.622,395.061,0.0
52262.0,STARLINK-3761,PAYLOAD,2022-05-21 14:00:01,15.56492225,0.0002223,53.2175,227.4513,27.7242,144.0113,-0.0108,-0.00713376,0.0,0 STARLINK-3761,1 52262U 22041B   22141.58335648 -.00713376  00000-0 -10800-1 0  9997,2 52262  53.2175 227.4513 0002223  27.7242 144.0113 15.56492225  1308,6775.955,92.516,399.327,396.314,0.0
52262.0,STARLINK-3761,PAYLOAD,2022-05-21 20:00:01,15.56110193,0.000174,53.2171,226.2423,35.5956,97.54,-0.010969,-0.00714094,0.0,0 STARLINK-3761,1 52262U 22041B   22141.83334491 -.00714094  00000-0 -10969-1 0  9994,2 52262  53.2171 226.2423 0001740  35.5956  97.5400 15.56110193  5961,6777.064,92.538,400.109,397.75,0.0
52262.0,STARLINK-3761,PAYLOAD,2022-05-21 22:00:00,15.55984734,0.0001651,53.2174,225.83900000000003,42.2112,198.0025,-0.011084,-0.0071785,0.0,0 STARLINK-3761,1 52262U 22041B   22141.91667824 -.00717850  00000-0 -11084-1 0  9994,2 52262  53.2174 225.8390 0001651  42.2112 198.0025 15.55984734  1305,6777.429,92.546,400.413,398.175,0.0
52262.0,STARLINK-3761,PAYLOAD,2022-05-22 14:00:01,15.54964093,0.0001767,53.2174,222.622,31.5531,343.9074,-0.011489,-0.00716542,0.0,0 STARLINK-3761,1 52262U 22041B   22142.58334491 -.00716542  00000-0 -11489-1 0  9995,2 52262  53.2174 222.6220 0001767  31.5531 343.9074 15.54964093  1306,6780.394,92.607,403.457,401.061,0.0
52262.0,STARLINK-3761,PAYLOAD,2022-05-22 22:00:01,15.54452753,0.000165,53.2173,221.0133,34.5252,47.7059,-0.01166,-0.00713828,0.0,0 STARLINK-3761,1 52262U 22041B   22142.91668981 -.00713828  00000-0 -11660-1 0  9991,2 52262  53.2173 221.0133 0001650  34.5252  47.7059 15.54452753  6138,6781.880999999999,92.637,404.865,402.627,0.0
52262.0,STARLINK-3761,PAYLOAD,2022-05-23 14:00:01,15.53431539,0.0001878,53.2175,217.8034,36.7601,176.9766,-0.012057,-0.00711255,0.0,0 STARLINK-3761,1 52262U 22041B   22143.58334491 -.00711255  00000-0 -12057-1 0  9994,2 52262  53.2175 217.8034 0001878  36.7601 176.9766 15.53431539  1309,6784.853,92.698,407.992,405.444,0.0
52262.0,STARLINK-3761,PAYLOAD,2022-05-23 20:00:01,15.53050545,0.0001754999999999,53.2172,216.5995,38.5234,133.9208,-0.01228,-0.00714116,0.0,0 STARLINK-3761,1 52262U 22041B   22143.83334491 -.00714116  00000-0 -12280-1 0  9999,2 52262  53.2172 216.5995 0001755  38.5234 133.9208 15.53050545  6284,6785.962,92.721,409.018,406.636,0.0
52262.0,STARLINK-3761,PAYLOAD,2022-05-23 22:00:01,15.52924879,0.000157,53.2175,216.1982,42.5044,236.1632,-0.012395,-0.00717189,0.0,0 STARLINK-3761,1 52262U 22041B   22143.91668981 -.00717189  00000-0 -12395-1 0  9992,2 52262  53.2175 216.1982 0001570  42.5044 236.1632 15.52924879  1302,6786.328,92.728,409.259,407.128,0.0
52262.0,STARLINK-3761,PAYLOAD,2022-05-24 12:15:18,15.528925199999998,0.0004536,53.2124,213.3683,29.3201,330.8064,-0.0053695,-0.00326403,0.0,0 STARLINK-3761,1 52262U 22041B   22144.51063494 -.00326403  00000-0 -53695-2 0  9991,2 52262  53.2124 213.3683 0004536  29.3201 330.8064 15.52892520  6387,6786.4230000000025,92.73,411.366,405.209,0.0
52262.0,STARLINK-3761,PAYLOAD,2022-05-24 22:00:00,15.513919,0.0001747,53.2174,211.3944,34.2306,75.2953,-0.012988,-0.00711473,0.0,0 STARLINK-3761,1 52262U 22041B   22144.91667824 -.00711473  00000-0 -12988-1 0  9996,2 52262  53.2174 211.3944 0001747  34.2306  75.2953 15.51391900  6441,6790.7980000000025,92.82,413.85,411.477,0.0
52262.0,STARLINK-3761,PAYLOAD,2022-05-25 14:00:01,15.50298017,0.0001995,53.2175,208.2008,33.093,200.6632,-0.0097776,-0.00527335,0.0,0 STARLINK-3761,1 52262U 22041B   22145.58334491 -.00527335  00000-0 -97776-2 0  9992,2 52262  53.2175 208.2008 0001995  33.0930 200.6632 15.50298017  1305,6793.9919999999975,92.885,417.213,414.502,0.0
52262.0,STARLINK-3761,PAYLOAD,2022-05-25 19:11:10,15.51060092,0.0004176,53.212,207.1931,17.0781,343.037,-0.0058302,-0.00331503,0.0,0 STARLINK-3761,1 52262U 22041B   22145.79943179 -.00331503  00000-0 -58302-2 0  9996,2 52262  53.2120 207.1931 0004176  17.0781 343.0370 15.51060092  5360,6791.767,92.84,416.468,410.795,0.0
52262.0,STARLINK-3761,PAYLOAD,2022-05-25 22:00:00,15.49887178,0.0001578,53.2175,206.6048,45.9757,248.9576,-6.3433e-05,-4.05e-05,0.0,0 STARLINK-3761,1 52262U 22041B   22145.91667824 -.00004050  00000-0 -63433-4 0  9997,2 52262  53.2175 206.6048 0001578  45.9757 248.9576 15.49887178  6607,6795.193,92.91,418.13,415.986,0.0
52262.0,STARLINK-3761,PAYLOAD,2022-05-26 10:39:35,15.50512186,0.0001113,53.2129,204.0977,83.598,276.5156,-0.0042409,-0.00239202,0.0,0 STARLINK-3761,1 52262U 22041B   22146.44416142 -.00239202  00000-0 -42409-2 0  9998,2 52262  53.2129 204.0977 0001113  83.5980 276.5156 15.50512186  6685,6793.3669999999975,92.873,415.98800000000006,414.476,0.0
